NORAD_CAT_ID,OBJECT_NAME,OBJECT_TYPE,EPOCH,MEAN_MOTION,ECCENTRICITY,INCLINATION,RA_OF_ASC_NODE,ARG_OF_PERICENTER,MEAN_ANOMALY,BSTAR,MEAN_MOTION_DOT,MEAN_MOTION_DDOT,TLE_LINE0,TLE_LINE1,TLE_LINE2,SEMIMAJOR_AXIS,PERIOD,APOGEE,PERIGEE,DECAYED
55423.0,STARLINK-5068,PAYLOAD,2023-05-28 14:00:01,14.99664637,0.0002951,69.9985,126.4886,273.8819,226.5764,-0.045484,-0.00527504,0.0,0 STARLINK-5068,1 55423U 23014AJ  23148.58334491 -.00527504  00000-0 -45484-1 0  9995,2 55423  69.9985 126.4886 0002951 273.8819 226.5764 14.99664637 18429,6946.069,96.021,569.983,565.884,0.0
55423.0,STARLINK-5068,PAYLOAD,2023-05-28 22:00:00,14.99293016,0.0002794,69.9991,125.6467,268.757,230.5404,0.0017313,0.0002115,0.0,0 STARLINK-5068,1 55423U 23014AJ  23148.91667824  .00021150  00000-0  17313-2 0  9996,2 55423  69.9991 125.6467 0002794 268.7570 230.5404 14.99293016 18474,6947.216,96.045,571.022,567.14,0.0
55423.0,STARLINK-5068,PAYLOAD,2023-05-29 14:00:01,14.99319035,0.0002717,69.9996,123.9632,273.8449,222.7472,-0.0037937,-0.0004623,0.0,0 STARLINK-5068,1 55423U 23014AJ  23149.58334491 -.00046230  00000-0 -37937-2 0  9993,2 55423  69.9996 123.9632 0002717 273.8449 222.7472 14.99319035 18570,6947.136,96.044,570.889,567.114,0.0
55423.0,STARLINK-5068,PAYLOAD,2023-05-29 21:24:04,15.00012387,0.0003001,69.9972,123.1859,263.4492,96.6326,-0.010433,-0.00127806,0.0,0 STARLINK-5068,1 55423U 23014AJ  23149.89171702 -.00127806  00000-0 -10433-1 0  9991,2 55423  69.9972 123.1859 0003001 263.4492  96.6326 15.00012387 19555,6944.995,95.999,568.944,564.776,0.0
55423.0,STARLINK-5068,PAYLOAD,2023-05-29 22:00:00,14.99303091,0.0002721,69.9999,123.1215,268.1945,227.045,0.0016447,0.00020089,0.0,0 STARLINK-5068,1 55423U 23014AJ  23149.91667824  .00020089  00000-0  16447-2 0  9994,2 55423  69.9999 123.1215 0002721 268.1945 227.0450 14.99303091 18620,6947.185,96.045,570.941,567.16,0.0
55423.0,STARLINK-5068,PAYLOAD,2023-05-30 14:00:01,14.99316999,0.0002681,69.9994,121.4379,273.5618,218.9816,-0.0036636,-0.00044656,0.0,0 STARLINK-5068,1 55423U 23014AJ  23150.58334491 -.00044656  00000-0 -36636-2 0  9990,2 55423  69.9994 121.4379 0002681 273.5618 218.9816 14.99316999 18726,6947.142,96.044,570.87,567.145,0.0
55423.0,STARLINK-5068,PAYLOAD,2023-05-30 22:00:00,14.99305915,0.000268,69.9997,120.5962,268.3718,222.8188,0.0012064,0.000147,0.0,0 STARLINK-5068,1 55423U 23014AJ  23150.91667824  .00014700  00000-0  12064-2 0  9990,2 55423  69.9997 120.5962 0002680 268.3718 222.8188 14.99305915 18776,6947.177,96.044,570.903,567.18,0.0
55423.0,STARLINK-5068,PAYLOAD,2023-05-31 00:00:02,14.9932898,0.0002723,69.9998,120.3856,269.4658,311.4453,-0.0026519,-0.00032416,0.0,0 STARLINK-5068,1 55423U 23014AJ  23151.00002315 -.00032416  00000-0 -26519-2 0  9995,2 55423  69.9998 120.3856 0002723 269.4658 311.4453 14.99328980  1308,6947.105,96.043,570.862,567.079,0.0
55423.0,STARLINK-5068,PAYLOAD,2023-05-31 14:00:01,14.99303986,0.0002668,69.9994,118.9125,274.9332,213.568,-0.0032102,-0.00039158,0.0,0 STARLINK-5068,1 55423U 23014AJ  23151.58334491 -.00039158  00000-0 -32102-2 0  9996,2 55423  69.9994 118.9125 0002668 274.9332 213.5680 14.99303986 18877,6947.183,96.045,570.901,567.194,0.0
55423.0,STARLINK-5068,PAYLOAD,2023-05-31 22:00:00,14.99300262,0.0002664,69.9998,118.0707,269.4044,217.7322,0.0010718,0.00013045,0.0,0 STARLINK-5068,1 55423U 23014AJ  23151.91667824  .00013045  00000-0  10718-2 0  9996,2 55423  69.9998 118.0707 0002664 269.4044 217.7322 14.99300262 18922,6947.194,96.045,570.91,567.208,0.0
55423.0,STARLINK-5068,PAYLOAD,2023-06-01 07:02:32,14.99299126,0.000255,69.9991,117.1207,273.1162,86.9706,-1.2774e-05,-2.5e-06,0.0,0 STARLINK-5068,1 55423U 23014AJ  23152.29343411 -.00000250  00000-0 -12774-4 0  9993,2 55423  69.9991 117.1207 0002550 273.1162  86.9706 14.99299126 19915,6947.198,96.045,570.834,567.291,0.0
55423.0,STARLINK-5068,PAYLOAD,2023-06-02 07:03:37,14.99301307,0.0002568,69.9991,114.5937,272.492,87.5945,-1.9774e-05,-3.36e-06,0.0,0 STARLINK-5068,1 55423U 23014AJ  23153.29418468 -.00000336  00000-0 -19774-4 0  9991,2 55423  69.9991 114.5937 0002568 272.4920  87.5945 14.99301307 19129,6947.191,96.045,570.84,567.272,0.0
55423.0,STARLINK-5068,PAYLOAD,2023-06-02 21:28:16,14.99298562,0.0002606,69.9988,113.0771,272.65,87.4361,3.1994e-05,2.98e-06,0.0,0 STARLINK-5068,1 55423U 23014AJ  23153.89463611  .00000298  00000-0  31994-4 0  9990,2 55423  69.9988 113.0771 0002606 272.6500  87.4361 14.99298562 20158,6947.199,96.045,570.875,567.254,0.0
55423.0,STARLINK-5068,PAYLOAD,2023-06-03 07:04:42,14.99299332,0.000259,69.9989,112.0653,271.078,89.0083,2.6966e-05,2.36e-06,0.0,0 STARLINK-5068,1 55423U 23014AJ  23154.29493671  .00000236  00000-0  26966-4 0  9999,2 55423  69.9989 112.0653 0002590 271.0780  89.0083 14.99299332 19278,6947.197,96.045,570.861,567.263,0.0
55423.0,STARLINK-5068,PAYLOAD,2023-06-03 21:29:21,14.99299285,0.0002624,69.9989,110.5493,271.2558,88.8301,1.3162e-05,6.7e-07,0.0,0 STARLINK-5068,1 55423U 23014AJ  23154.89538846  .00000067  00000-0  13162-4 0  9995,2 55423  69.9989 110.5493 0002624 271.2558  88.8301 14.99299285 20309,6947.197,96.045,570.885,567.239,0.0
55423.0,STARLINK-5068,PAYLOAD,2023-06-04 07:05:47,14.99303105,0.0002626,69.999,109.5385,271.2168,88.8691,1.9581e-05,1.46e-06,0.0,0 STARLINK-5068,1 55423U 23014AJ  23155.29568651  .00000146  00000-0  19581-4 0  9996,2 55423  69.9990 109.5385 0002626 271.2168  88.8691 14.99303105 19428,6947.185,96.045,570.875,567.226,0.0
55423.0,STARLINK-5068,PAYLOAD,2023-06-04 21:30:26,14.99300989,0.0002607,69.9991,108.0224,270.7707,89.3153,-1.4238e-05,-2.68e-06,0.0,0 STARLINK-5068,1 55423U 23014AJ  23155.89613952 -.00000268  00000-0 -14238-4 0  9998,2 55423  69.9991 108.0224 0002607 270.7707  89.3153 14.99300989 20458,6947.192,96.045,570.868,567.246,0.0
55423.0,STARLINK-5068,PAYLOAD,2023-06-05 07:06:52,14.99304104,0.0002558,69.9993,107.0119,270.1722,89.9144,3.7853e-05,3.69e-06,0.0,0 STARLINK-5068,1 55423U 23014AJ  23156.29643629  .00000369  00000-0  37853-4 0  9995,2 55423  69.9993 107.0119 0002558 270.1722  89.9144 14.99304104 19578,6947.182,96.045,570.824,567.27,0.0
55423.0,STARLINK-5068,PAYLOAD,2023-06-05 13:31:09,14.99300675,0.000255,69.9994,106.3379,270.8475,89.2392,2.1143e-06,-6.8e-07,0.0,0 STARLINK-5068,1 55423U 23014AJ  23156.56330621 -.00000068  00000-0  21143-5 0  9993,2 55423  69.9994 106.3379 0002550 270.8475  89.2392 14.99300675 20550,6947.193,96.045,570.829,567.286,0.0
55423.0,STARLINK-5068,PAYLOAD,2023-06-06 00:43:40,14.99298888,0.0002467,69.9996,105.1593,267.1689,92.9188,-1.8133e-05,-3.16e-06,0.0,0 STARLINK-5068,1 55423U 23014AJ  23157.03032542 -.00000316  00000-0 -18133-4 0  9998,2 55423  69.9996 105.1593 0002467 267.1689  92.9188 14.99298888 19688,6947.198,96.045,570.777,567.349,0.0
55423.0,STARLINK-5068,PAYLOAD,2023-06-06 07:07:57,14.99298676,0.000248,69.9995,104.4854,267.4251,92.6624,-1.9938e-05,-3.38e-06,0.0,0 STARLINK-5068,1 55423U 23014AJ  23157.29719306 -.00000338  00000-0 -19938-4 0  9994,2 55423  69.9995 104.4854 0002480 267.4251  92.6624 14.99298676 20669,6947.199,96.045,570.787,567.341,0.0
55423.0,STARLINK-5068,PAYLOAD,2023-06-07 05:32:58,14.9930098,0.0002556,69.9995,102.1265,269.7698,90.3168,-2.6725e-05,-4.21e-06,0.0,0 STARLINK-5068,1 55423U 23014AJ  23158.23122734 -.00000421  00000-0 -26725-4 0  9997,2 55423  69.9995 102.1265 0002556 269.7698  90.3168 14.99300980 19864,6947.192,96.045,570.833,567.281,0.0
55423.0,STARLINK-5068,PAYLOAD,2023-06-07 21:33:41,14.99298644,0.0002637,69.9995,100.4416,270.8327,89.253,3.5271e-05,3.38e-06,0.0,0 STARLINK-5068,1 55423U 23014AJ  23158.89839475  .00000338  00000-0  35271-4 0  9997,2 55423  69.9995 100.4416 0002637 270.8327  89.2530 14.99298644 20905,6947.199,96.045,570.896,567.232,0.0
55423.0,STARLINK-5068,PAYLOAD,2023-06-08 05:34:02,14.99301567,0.0002623,69.9994,99.5993,267.729,92.357,4.3579e-05,4.39e-06,0.0,0 STARLINK-5068,1 55423U 23014AJ  23159.23197653  .00000439  00000-0  43579-4 0  9993,2 55423  69.9994  99.5993 0002623 267.7290  92.3570 14.99301567 20011,6947.19,96.045,570.877,567.233,0.0
55423.0,STARLINK-5068,PAYLOAD,2023-06-08 13:34:24,14.99302451,0.0002671,69.9993,98.757,269.2074,90.878,3.7233e-05,3.62e-06,0.0,0 STARLINK-5068,1 55423U 23014AJ  23159.56555969  .00000362  00000-0  37233-4 0  9992,2 55423  69.9993  98.7570 0002671 269.2074  90.8780 14.99302451 21001,6947.187,96.045,570.908,567.197,0.0
55423.0,STARLINK-5068,PAYLOAD,2023-06-09 05:35:07,14.99308346,0.0002704,69.9994,97.0718,268.2237,91.8613,7.2477e-05,7.93e-06,0.0,0 STARLINK-5068,1 55423U 23014AJ  23160.23272089  .00000793  00000-0  72477-4 0  9994,2 55423  69.9994  97.0718 0002704 268.2237  91.8613 14.99308346 20166,6947.169,96.044,570.913,567.156,0.0
55423.0,STARLINK-5068,PAYLOAD,2023-06-09 13:35:29,14.99299936,0.0002656,69.9994,96.2281,266.2825,93.8031,-1.6993e-05,-3.02e-06,0.0,0 STARLINK-5068,1 55423U 23014AJ  23160.56631151 -.00000302  00000-0 -16993-4 0  9998,2 55423  69.9994  96.2281 0002656 266.2825  93.8031 14.99299936 21159,6947.195,96.045,570.905,567.215,0.0
55423.0,STARLINK-5068,PAYLOAD,2023-06-10 07:12:17,14.9929569,0.0002572,70.0,94.3765,270.5535,89.5329,-7.9734e-05,-1.069e-05,0.0,0 STARLINK-5068,1 55423U 23014AJ  23161.30020247 -.00001069  00000-0 -79734-4 0  9992,2 55423  70.0000  94.3765 0002572 270.5535  89.5329 14.99295690 21266,6947.208,96.045,570.86,567.286,0.0
55423.0,STARLINK-5068,PAYLOAD,2023-06-11 02:25:08,14.99303656,0.0002717,69.9997,92.3552,269.0371,91.0477,-4.1309e-05,-5.99e-06,0.0,0 STARLINK-5068,1 55423U 23014AJ  23162.10079737 -.00000599  00000-0 -41309-4 0  9993,2 55423  69.9997  92.3552 0002717 269.0371  91.0477 14.99303656 20445,6947.184,96.045,570.936,567.161,0.0
55423.0,STARLINK-5068,PAYLOAD,2023-06-11 12:01:34,14.99305634,0.0002717,69.9999,91.3442,263.3816,96.7035,-2.9857e-05,-4.59e-06,0.0,0 STARLINK-5068,1 55423U 23014AJ  23162.50109529 -.00000459  00000-0 -29857-4 0  9999,2 55423  69.9999  91.3442 0002717 263.3816  96.7035 14.99305634 21446,6947.177,96.044,570.93,567.155,0.0
